{
  "type": "FeatureCollection",
  "features": [
    {
      "type": "Feature",
      "properties": {
        "norad_id": 64903,
        "name": "CO3D 1",
        "group": "resource",
        "lat": -74.95777855242636,
        "lon": -137.31959011530668,
        "alt_km": 513.1675973506526,
        "timestamp": "2025-12-21T14:40:47.568806+00:00",
        "meta_object_name": "CO3D 1",
        "meta_object_id": "2025-156E",
        "meta_epoch": "2025-12-21T05:39:16.655616",
        "meta_mean_motion": 15.2020552,
        "meta_eccentricity": 8.998e-05,
        "meta_inclination": 97.4342,
        "meta_ra_of_asc_node": 71.38,
        "meta_arg_of_pericenter": 78.9423,
        "meta_mean_anomaly": 281.1914,
        "meta_ephemeris_type": 0,
        "meta_classification_type": "U",
        "meta_norad_cat_id": 64903,
        "meta_element_set_no": 999,
        "meta_rev_at_epoch": 2249,
        "meta_bstar": 0.00022695878,
        "meta_mean_motion_dot": 4.849e-05,
        "meta_mean_motion_ddot": 0,
        "tle_line1": "1 64903U 25156E   25355.23560944  .00004849  00000+0  22696-3 0  9996",
        "tle_line2": "2 64903  97.4342  71.3800 0000899  78.9423 281.1914 15.20205520 22496"
      },
      "geometry": {
        "type": "Point",
        "coordinates": [
          -137.31959011530668,
          -74.95777855242636
        ]
      }
    },
    {
      "type": "Feature",
      "properties": {
        "norad_id": 66514,
        "name": "SENTINEL-6B",
        "group": "resource",
        "lat": -18.36244473676634,
        "lon": 135.50709842810994,
        "alt_km": 1337.837216977855,
        "timestamp": "2025-12-21T14:40:47.568816+00:00",
        "meta_object_name": "SENTINEL-6B",
        "meta_object_id": "2025-264A",
        "meta_epoch": "2025-12-12T06:01:21.427680",
        "meta_mean_motion": 12.81479575,
        "meta_eccentricity": 0.0007848,
        "meta_inclination": 66.0385,
        "meta_ra_of_asc_node": 163.4531,
        "meta_arg_of_pericenter": 270.1375,
        "meta_mean_anomaly": 89.8741,
        "meta_ephemeris_type": 0,
        "meta_classification_type": "U",
        "meta_norad_cat_id": 66514,
        "meta_element_set_no": 999,
        "meta_rev_at_epoch": 322,
        "meta_bstar": 0.00018195,
        "meta_mean_motion_dot": -1.9e-07,
        "meta_mean_motion_ddot": 0,
        "tle_line1": "1 66514U 25264A   25346.25094245 -.00000019  00000+0  18195-3 0  9999",
        "tle_line2": "2 66514  66.0385 163.4531 0007848 270.1375  89.8741 12.81479575  3220"
      },
      "geometry": {
        "type": "Point",
        "coordinates": [
          135.50709842810994,
          -18.36244473676634
        ]
      }
    }
  ]
}